*******************************************************************************
JPL/HORIZONS                 283 Emma (A889 CA)            2020-Jun-22 08:46:38
Rec #:     283 (+COV) Soln.date: 2020-Feb-22_15:23:10   # obs: 2987 (1894-2020)
 
IAU76/J2000 helio. ecliptic osc. elements (au, days, deg., period=Julian yrs):
 
  EPOCH=  2455921.5 ! 2011-Dec-26.00 (TDB)         Residual RMS= .34049
   EC= .1492244620553148   QR= 2.591823670092337   TP= 2454971.6748140422
   OM= 304.40760515119     W=  53.57524903380486   IN= 7.993259659466053
   A= 3.046424767164438    MA= 176.060555983886    ADIST= 3.501025864236539
   PER= 5.31733            N= .185361005           ANGMOM= .029688387
   DAN= 2.73615            DDN= 3.26816            L= 357.7152185
   B= 6.4242855            MOID= 1.59527004        TP= 2009-May-20.1748140422
 
Asteroid physical parameters (km, seconds, rotational period in hours):
   GM= n.a.                RAD= 66.1925            ROTPER= 6.896
   H= 8.6                  G= .150                 B-V= .712
                           ALBEDO= .023            STYP= X
 
ASTEROID comments: 
1: soln ref.= JPL#79, OCC=0
2: source=ORB
*******************************************************************************
 
 
*******************************************************************************
Ephemeris / WWW_USER Mon Jun 22 08:46:38 2020 Pasadena, USA      / Horizons
*******************************************************************************
Target body name: 283 Emma (A889 CA)              {source: JPL#79}
Center body name: Solar System Barycenter (0)     {source: DE431}
Center-site name: BODY CENTER
*******************************************************************************
Start time      : A.D. 1969-Jun-28 00:00:00.0000 TDB
Stop  time      : A.D. 2071-May-04 00:00:00.0000 TDB
Step-size       : 7200 minutes
*******************************************************************************
Center geodetic : 0.00000000,0.00000000,0.0000000 {E-lon(deg),Lat(deg),Alt(km)}
Center cylindric: 0.00000000,0.00000000,0.0000000 {E-lon(deg),Dxy(km),Dz(km)}
Center radii    : (undefined)                                                  
Small perturbers: Yes                             {source: SB431-N16}
Output units    : AU-D
Output type     : GEOMETRIC cartesian states
Output format   : 2 (position and velocity)
Reference frame : Ecliptic of J2000.0
*******************************************************************************
Initial IAU76/J2000 heliocentric ecliptic osculating elements (au, days, deg.):
  EPOCH=  2455921.5 ! 2011-Dec-26.00 (TDB)         Residual RMS= .34049        
   EC= .1492244620553148   QR= 2.591823670092337   TP= 2454971.6748140422      
   OM= 304.40760515119     W=  53.57524903380486   IN= 7.993259659466053       
  Equivalent ICRF heliocentric equatorial cartesian coordinates (au, au/d):
   X=-3.465379819372928E+00  Y= 4.413398964966011E-01  Z=-2.187429009668364E-01
  VX=-7.670298744058281E-04 VY=-7.418364821326975E-03 VZ=-4.040755098918579E-03
Asteroid physical parameters (km, seconds, rotational period in hours):        
   GM= n.a.                RAD= 66.1925            ROTPER= 6.896               
   H= 8.6                  G= .150                 B-V= .712                   
                           ALBEDO= .023            STYP= X                     
*******************************************************************************
            JDTDB,            Calendar Date (TDB),        delta-T,                      X,                      Y,                      Z,                     VX,                     VY,                     VZ,
******************************************************************************************************************************************************************************************************************
$$SOE
2455240.500000000, A.D. 2010-Feb-13 00:00:00.0000,      66.185067,  1.268193904006002E+00,  2.470213204207724E+00,  3.433758666029410E-01, -8.757693792550675E-03,  6.112357972981693E-03, -5.288822025047609E-04,
2455245.500000000, A.D. 2010-Feb-18 00:00:00.0000,      66.185175,  1.224193510148262E+00,  2.500357204939345E+00,  3.406737092679032E-01, -8.841868010092686E-03,  5.945106193476186E-03, -5.519224876575352E-04,
2455250.500000000, A.D. 2010-Feb-23 00:00:00.0000,      66.185274,  1.179781168038746E+00,  2.529662974972185E+00,  3.378572281911909E-01, -8.922475815241439E-03,  5.777079656268639E-03, -5.746109061802822E-04,
2455255.500000000, A.D. 2010-Feb-28 00:00:00.0000,      66.185361,  1.134974667239183E+00,  2.558126848562338E+00,  3.349281942963787E-01, -8.999534538910347E-03,  5.608361298515270E-03, -5.969428825144017E-04,
2455260.500000000, A.D. 2010-Mar-05 00:00:00.0000,      66.185438,  1.089791705776434E+00,  2.585745570412461E+00,  3.318884004829080E-01, -9.073063447769364E-03,  5.439032356065045E-03, -6.189142004129936E-04,
2455265.500000000, A.D. 2010-Mar-10 00:00:00.0000,      66.185505,  1.044249880708335E+00,  2.612516287085105E+00,  3.287396598516665E-01, -9.143083646566933E-03,  5.269172332237159E-03, -6.405209940364087E-04,
2455270.500000000, A.D. 2010-Mar-15 00:00:00.0000,      66.185562,  9.983666791751931E-01,  2.638436538272256E+00,  3.254838039757846E-01, -9.209617981577203E-03,  5.098858971496741E-03, -6.617597387772750E-04,
2455275.500000000, A.D. 2010-Mar-20 00:00:00.0000,      66.185607,  9.521594699309041E-01,  2.663504247945165E+00,  3.221226812179112E-01, -9.272690945322295E-03,  4.928168237882925E-03, -6.826272418483418E-04,
2455280.500000000, A.D. 2010-Mar-25 00:00:00.0000,      66.185640,  9.056454953471489E-01,  2.687717715407971E+00,  3.186581550950707E-01, -9.332328582607692E-03,  4.757174298051630E-03, -7.031206326742815E-04,
2455285.500000000, A.D. 2010-Mar-30 00:00:00.0000,      66.185658,  8.588418638843464E-01,  2.711075606277241E+00,  3.150921026918320E-01, -9.388558397782935E-03,  4.585949508486286E-03, -7.232373531993328E-04,
2455290.500000000, A.D. 2010-Apr-04 00:00:00.0000,      66.185664,  8.117655430227262E-01,  2.733576943405881E+00,  3.114264131217504E-01, -9.441409263561266E-03,  4.414564405841126E-03, -7.429751483028463E-04,
2455295.500000000, A.D. 2010-Apr-09 00:00:00.0000,      66.185659,  7.644333526432292E-01,  2.755221097765392E+00,  3.076629860363843E-01, -9.490911332434031E-03,  4.243087700029455E-03, -7.623320563195119E-04,
2455300.500000000, A.D. 2010-Apr-14 00:00:00.0000,      66.185643,  7.168619588441379E-01,  2.776007779302698E+00,  3.038037301819561E-01, -9.537095950852822E-03,  4.071586271155713E-03, -7.813063994334433E-04,
2455305.500000000, A.D. 2010-Apr-19 00:00:00.0000,      66.185616,  6.690678681815341E-01,  2.795937027791897E+00,  2.998505620043578E-01, -9.579995575446941E-03,  3.900125170406978E-03, -7.998967739790352E-04,
2455310.500000000, A.D. 2010-Apr-24 00:00:00.0000,      66.185575,  6.210674223234344E-01,  2.815009203698373E+00,  2.958054043025489E-01, -9.619643691424155E-03,  3.728767624003627E-03, -8.181020407904742E-04,
2455315.500000000, A.D. 2010-Apr-29 00:00:00.0000,      66.185521,  5.728767931054866E-01,  2.833224979069764E+00,  2.916701849301288E-01, -9.656074733582515E-03,  3.557575040009420E-03, -8.359213155701248E-04,
2455320.500000000, A.D. 2010-May-04 00:00:00.0000,      66.185456,  5.245119779750068E-01,  2.850585328468473E+00,  2.874468355451490E-01, -9.689324009935866E-03,  3.386607018157176E-03, -8.533539592189370E-04,
2455325.500000000, A.D. 2010-May-09 00:00:00.0000,      66.185383,  4.759887958107237E-01,  2.867091519960814E+00,  2.831372904083669E-01, -9.719427627777937E-03,  3.215921362648873E-03, -8.703995681379425E-04,
2455330.500000000, A.D. 2010-May-14 00:00:00.0000,      66.185300,  4.273228831063854E-01,  2.882745106177117E+00,  2.787434852299547E-01, -9.746422422060015E-03,  3.045574097690287E-03, -8.870579645530262E-04,
2455335.500000000, A.D. 2010-May-19 00:00:00.0000,      66.185208,  3.785296905067725E-01,  2.897547915455684E+00,  2.742673560643946E-01, -9.770345886053404E-03,  2.875619485437614E-03, -9.033291869254878E-04,
2455340.500000000, A.D. 2010-May-24 00:00:00.0000,      66.185106,  3.296244796846113E-01,  2.911502043081829E+00,  2.697108382530008E-01, -9.791236104337402E-03,  2.706110046042027E-03, -9.192134804999821E-04,
2455345.500000000, A.D. 2010-May-29 00:00:00.0000,      66.184995,  2.806223205465885E-01,  2.924609842631838E+00,  2.650758654132788E-01, -9.809131688181935E-03,  2.537096579526653E-03, -9.347112880235095E-04,
2455350.500000000, A.D. 2010-Jun-03 00:00:00.0000,      66.184877,  2.315380887563297E-01,  2.936873917430429E+00,  2.603643684742259E-01, -9.824071713389804E-03,  2.368628189282662E-03, -9.498232406535682E-04,
2455355.500000000, A.D. 2010-Jun-08 00:00:00.0000,      66.184755,  1.823864635619124E-01,  2.948297112129380E+00,  2.555782747566004E-01, -9.836095660646749E-03,  2.200752307015697E-03, -9.645501490622098E-04,
2455360.500000000, A.D. 2010-Jun-13 00:00:00.0000,      66.184628,  1.331819259152875E-01,  2.958882504414254E+00,  2.507195070971792E-01, -9.845243358412624E-03,  2.033514719015494E-03, -9.788929947352318E-04,
2455365.500000000, A.D. 2010-Jun-18 00:00:00.0000,      66.184497,  8.393875687084940E-02,  2.968633396845617E+00,  2.457899830160493E-01, -9.851554928370813E-03,  1.866959593690568E-03, -9.928529214589786E-04,
2455370.500000000, A.D. 2010-Jun-23 00:00:00.0000,      66.184360,  3.467103625045671E-02,  2.977553308841174E+00,  2.407916139260136E-01, -9.855070733373708E-03,  1.701129510405359E-03, -1.006431226988363E-03,
2455375.500000000, A.D. 2010-Jun-28 00:00:00.0000,      66.184220, -1.460735843699007E-02,  2.985645968805271E+00,  2.357263043831516E-01, -9.855831327611036E-03,  1.536065489533411E-03, -1.019629354925221E-03,
